[{"OBJECT_NAME":"TANDEM-X","OBJECT_ID":"2010-030A","EPOCH":"2026-03-09T12:47:32.131392","MEAN_MOTION":15.19144937,"ECCENTRICITY":0.0001868,"INCLINATION":97.4478,"RA_OF_ASC_NODE":77.6581,"ARG_OF_PERICENTER":98.3695,"MEAN_ANOMALY":261.7752,"EPHEMERIS_TYPE":0,"CLASSIFICATION_TYPE":"U","NORAD_CAT_ID":36605,"ELEMENT_SET_NO":999,"REV_AT_EPOCH":87151,"BSTAR":7.7445e-5,"MEAN_MOTION_DOT":1.559e-5,"MEAN_MOTION_DDOT":0},{"OBJECT_NAME":"STARLINK-30205","OBJECT_ID":"2023-102E","EPOCH":"2026-03-09T22:00:01.999584","MEAN_MOTION":15.16447452,"ECCENTRICITY":0.00018696,"INCLINATION":43.0006,"RA_OF_ASC_NODE":246.9923,"ARG_OF_PERICENTER":276.197,"MEAN_ANOMALY":248.6091,"EPHEMERIS_TYPE":0,"CLASSIFICATION_TYPE":"U","NORAD_CAT_ID":57408,"ELEMENT_SET_NO":999,"REV_AT_EPOCH":577,"BSTAR":0.032319724,"MEAN_MOTION_DOT":0.00685913,"MEAN_MOTION_DDOT":0}]
